#aV2024  4  9  0  0  0.00000000     288 DD+AD WGS84 FIT  NGA
## 2309 172800.00000000   300.00000000 60409 0.0000000000000
+   32     1  2  3  4  5  6  7  8  9 10 11 12 13 14 15 16 17
+         18 19 20 21 22 23 24 25 26 27 28 29 30 31 32  0  0
+          0  0  0  0  0  0  0  0  0  0  0  0  0  0  0  0  0
+          0  0  0  0  0  0  0  0  0  0  0  0  0  0  0  0  0
+          0  0  0  0  0  0  0  0  0  0  0  0  0  0  0  0  0
++         2  2  2  2  2  2  2  2  2  2  2  2  2  2  2  2  2
++         2  2  2  2  2  2  2  2  2  2  2  2  2  2  2  0  0
++         0  0  0  0  0  0  0  0  0  0  0  0  0  0  0  0  0
++         0  0  0  0  0  0  0  0  0  0  0  0  0  0  0  0  0
++         0  0  0  0  0  0  0  0  0  0  0  0  0  0  0  0  0
%c cc cc ccc ccc cccc cccc cccc cccc ccccc ccccc ccccc ccccc
%c cc cc ccc ccc cccc cccc cccc cccc ccccc ccccc ccccc ccccc
%f  0.0000000  0.000000000  0.00000000000  0.000000000000000
%f  0.0000000  0.000000000  0.00000000000  0.000000000000000
%i    0    0    0    0      0      0      0      0         0
%i    0    0    0    0      0      0      0      0         0
/*      NGA, ST. LOUIS,MO.                                  
/*   EPHEMERIS COMPUTED FROM 2 DAYS OF DATA                 
/*   EPOCHA v9 SMOOTHER                                     
/*   G2296 IERS2010 SATIGS SATAPC                           
*  2024  4  9  8 45  0.00000000
P  1 -23571.570822 -10408.885936   6788.712754    178.826134                    
V  1  -6600.745464  -6289.316687 -30644.323903      0.024222                    
P  2 -22254.959535 -14269.352597  -3316.034266   -456.396530                    
V  2   5335.570962    102.128413 -31362.499980      0.064153                    
P  3 -12168.105176 -13586.188171  19206.505340    300.640431                    
V  3   2128.650130 -24530.295229 -15761.806045      0.214473                    
P  4 -18346.174620  -5457.162190  18489.162704    334.648979                    
V  4  20511.955447 -11308.001063  16901.455603      0.088144                    
P  5   6385.022000  24111.422479  -9164.960979   -168.482304                    
V  5  -2258.957738  11418.471586  29107.659725     -0.013915                    
P  6  -8205.557605  12079.475308  22249.163686    330.253781                    
V  6 -23436.774516 -15342.316356   -205.906074     -0.177236                    
P  7 -22537.968019  -2827.622123 -13636.400130   -103.310869                    
V  7 -13967.408066 -11581.486193  24117.555627     -0.085070                    
P  8 -10372.883314 -11741.795307 -21585.641473    110.857033                    
V  8  23571.742560 -13471.640041  -3596.748429      0.237093                    
P  9 -24240.780494   6256.044438   8874.260173    154.027885                    
V  9   8674.100652  -7806.360087  28886.026097      0.135419                    
P 10  10640.204181 -19038.117721 -14723.041314     -6.911748                    
V 10    998.708511  19205.969778 -24088.700624     -0.040274                    
P 11   4517.952760  18704.062138  18352.786093   -631.397244                    
V 11 -19778.368089 -12251.032881  17329.027069     -0.107289                    
P 12  11049.940868  15487.948750  18270.987725   -494.945242                    
V 12  -4172.136076  23443.300491 -17026.947197     -0.034710                    
P 13    309.680767  15605.132652 -21663.433212    641.248602                    
V 13 -25671.031241   8484.403585   6022.231638      0.031569                    
P 14 -13300.751751  15382.304701 -16952.701414    371.814604                    
V 14   -659.522375 -21796.201169 -19426.853314      0.095680                    
P 15  11725.836061  11162.991410 -21564.452426    146.523389                    
V 15 -21096.572699  15750.557183  -3195.838098      0.040458                    
P 16   -611.028342 -25767.051689  -5665.207109   -321.129818                    
V 16   3868.606606  -6410.314575  30982.272454      0.093066                    
P 17 -22661.469978  13426.333182   4433.940061    711.251898                    
V 17  -5583.004258    -56.991835 -31186.634133      0.001310                    
P 18  21729.959146   1992.120605 -15260.148110   -591.286893                    
V 18  15199.922141  11990.883773  23005.182311     -0.068100                    
P 19 -16981.934648  15822.104713  12376.039175    465.699135                    
V 19 -15912.344676   3634.239364 -26457.338446      0.053319                    
P 20   1138.732088  26418.419951   3330.980566    380.839248                    
V 20  -3411.548020  -3721.473251  31112.737561     -0.013972                    
P 21 -19637.948211 -16529.397578  -8139.150860    127.959250                    
V 21  10359.968197   3231.202360 -28888.148233     -0.015896                    
P 22 -10236.738410  22198.112589 -10315.438064      3.189597                    
V 22   -515.102142 -13815.436785 -27788.094951     -0.056832                    
P 23  14366.563220  -6867.566869 -21199.006088    196.676130                    
V 23    301.253553  26966.571446  -8707.652721      0.091082                    
P 24  20777.056830  15831.864194  -6310.396250   -457.218605                    
V 24  -8016.514628   -626.745960 -29535.484706     -0.045751                    
P 25  14971.780184   4602.048444  21136.589381    493.352994                    
V 25  -1128.485515  27625.407284  -4874.636410      0.008652                    
P 26   4689.196119 -24801.289859   7492.279151    169.033914                    
V 26   4175.570157   9709.189420  29312.364411     -0.049731                    
P 27   2361.987407 -17210.979291 -20254.423092    -17.519979                    
V 27  22844.531351 -10722.899920  12367.032099     -0.023969                    
P 28  10640.779168 -11198.966093  21589.631036   -196.286017                    
V 28  23437.595496  14289.009043  -4140.664027     -0.149111                    
P 29  24200.860920  -2361.261905  10758.820150   -602.433114                    
V 29 -11764.196175   7305.943741  27819.283596      0.011598                    
P 30 -15899.855445   7256.935968 -19929.230546   -407.840890                    
V 30 -20959.821531 -14803.862541  10983.476716      0.055196                    
P 31    707.462688 -16783.952353  20266.767281   -228.031556                    
V 31  22585.926221  13597.730594  10754.908541      0.000193                    
P 32  20153.267217 -15926.001355   6534.673866   -617.848743                    
V 32   8445.297144  -1317.600583 -30426.682615     -0.006050                    
EOF
